HAWK-11C                
1 62381U 24247E   26068.51221537  .00009223  00000+0  33290-3 0  9992
2 62381  45.0045 114.8762 0005900 329.7040  30.3502 15.28848020 67743
STARLINK-34672          
1 65894U 25224N   26068.10850663  .00024947  00000+0  85145-3 0  9999
2 65894  53.1616  14.1636 0000531  91.8621 268.2441 15.30204692 24783
